STARLINK-11678 [DTC]    
1 64326U 25124K   25227.04995962  .00187103  00000+0  14277-2 0  9999
2 64326  42.9976 194.9271 0003101 292.6563  67.3977 15.70859715 10335
STARLINK-11674 [DTC]    
1 64327U 25124L   25227.59037235  .00185071  00000+0  14123-2 0  9992
2 64327  42.9970 191.2191 0000983  21.9027 338.1883 15.70867203 10420
STARLINK-11707 [DTC]    
1 64328U 25124M   25227.60630105  .00252219  00000+0  19067-2 0  9991
2 64328  42.9968 191.3482 0000727  35.2738 324.8178 15.70881342 10424
STARLINK-11734 [DTC]    
1 64329U 25124N   25227.26182435  .00184747  00000+0  14088-2 0  9990
2 64329  43.0001 193.0519 0002531 276.4342  83.6237 15.70884283 10377
STARLINK-34252          
1 64330U 25124P   25227.58336806  .00004018  00000+0  15569-3 0  9998
2 64330  42.9996 205.8675 0002455 272.1029 213.7467 15.27532448  5904
STARLINK-34050          
1 64331U 25124Q   25227.03242376  .00021187  00000+0  75717-3 0  9994
2 64331  42.9998 208.9092 0001056 245.0408 115.0334 15.28438850 11233
STARLINK-33782          
1 64332U 25124R   25227.58336806 -.00020032  00000+0 -71975-3 0  9999
2 64332  43.0011 205.5723 0002046 261.8497 344.2443 15.27606209  5953
STARLINK-34207          
1 64333U 25124S   25226.96818725  .00016377  00000+0  60281-3 0  9999
2 64333  42.9968 209.2883 0001243 272.7970  87.2740 15.27608906 10165
STARLINK-34260          
1 64334U 25124T   25226.64894974  .00000370  00000+0  22975-4 0  9990
2 64334  42.9981 211.1884 0001266 265.6915  94.3792 15.27574791 10114
STARLINK-33855          
1 64335U 25124U   25227.01172657  .00023361  00000+0  85532-3 0  9992
2 64335  42.9980 208.7439 0001045 208.4344 151.6450 15.27597235 10170
STARLINK-34223          
1 64336U 25124V   25227.35991737  .00044692  00000+0  10700-2 0  9992
2 64336  43.0009 206.1985 0001648 267.8157  92.2511 15.40724818 10232
STARLINK-34216          
1 64337U 25124W   25227.58336806 -.00016512  00000+0 -57687-3 0  9996
2 64337  43.0003 205.3413 0000978 266.1674  76.3779 15.28413786  5918
STARLINK-34218          
1 64338U 25124X   25227.31973029  .00047756  00000+0  11424-2 0  9992
2 64338  43.0008 206.7604 0001776 266.9960  93.0693 15.40724632 10224
STARLINK-34017          
1 64339U 25124Y   25227.58336806 -.00016985  00000+0 -60882-3 0  9993
2 64339  43.0003 205.6710 0001570 261.1774 302.5113 15.27594085  5904
STARLINK-33977          
1 64344U 25126A   25227.60558620  .00001163  00000+0  10310-3 0  9995
2 64344  70.0016 194.0242 0003058 274.9388  85.1422 14.99146681 11021
STARLINK-34426          
1 64345U 25126B   25227.58336806 -.00045151  00000+0 -37262-2 0  9994
2 64345  70.0020 194.0277 0002479 272.3810   8.0866 14.99093521  5914
