[{"OBJECT_NAME":"STARLINK-11678 [DTC]","OBJECT_ID":"2025-124K","EPOCH":"2025-08-15T01:11:56.511168","MEAN_MOTION":15.70859715,"ECCENTRICITY":0.0003101,"INCLINATION":42.9976,"RA_OF_ASC_NODE":194.9271,"ARG_OF_PERICENTER":292.6563,"MEAN_ANOMALY":67.3977,"EPHEMERIS_TYPE":0,"CLASSIFICATION_TYPE":"U","NORAD_CAT_ID":64326,"ELEMENT_SET_NO":999,"REV_AT_EPOCH":1033,"BSTAR":0.0014277,"MEAN_MOTION_DOT":0.00187103,"MEAN_MOTION_DDOT":0},{"OBJECT_NAME":"STARLINK-11674 [DTC]","OBJECT_ID":"2025-124L","EPOCH":"2025-08-15T14:10:08.171040","MEAN_MOTION":15.70867203,"ECCENTRICITY":9.83e-5,"INCLINATION":42.997,"RA_OF_ASC_NODE":191.2191,"ARG_OF_PERICENTER":21.9027,"MEAN_ANOMALY":338.1883,"EPHEMERIS_TYPE":0,"CLASSIFICATION_TYPE":"U","NORAD_CAT_ID":64327,"ELEMENT_SET_NO":999,"REV_AT_EPOCH":1042,"BSTAR":0.0014123,"MEAN_MOTION_DOT":0.00185071,"MEAN_MOTION_DDOT":0},{"OBJECT_NAME":"STARLINK-11707 [DTC]","OBJECT_ID":"2025-124M","EPOCH":"2025-08-15T14:33:04.410720","MEAN_MOTION":15.70881342,"ECCENTRICITY":7.27e-5,"INCLINATION":42.9968,"RA_OF_ASC_NODE":191.3482,"ARG_OF_PERICENTER":35.2738,"MEAN_ANOMALY":324.8178,"EPHEMERIS_TYPE":0,"CLASSIFICATION_TYPE":"U","NORAD_CAT_ID":64328,"ELEMENT_SET_NO":999,"REV_AT_EPOCH":1042,"BSTAR":0.0019067,"MEAN_MOTION_DOT":0.00252219,"MEAN_MOTION_DDOT":0},{"OBJECT_NAME":"STARLINK-11734 [DTC]","OBJECT_ID":"2025-124N","EPOCH":"2025-08-15T06:17:01.623840","MEAN_MOTION":15.70884283,"ECCENTRICITY":0.0002531,"INCLINATION":43.0001,"RA_OF_ASC_NODE":193.0519,"ARG_OF_PERICENTER":276.4342,"MEAN_ANOMALY":83.6237,"EPHEMERIS_TYPE":0,"CLASSIFICATION_TYPE":"U","NORAD_CAT_ID":64329,"ELEMENT_SET_NO":999,"REV_AT_EPOCH":1037,"BSTAR":0.0014088,"MEAN_MOTION_DOT":0.00184747,"MEAN_MOTION_DDOT":0},{"OBJECT_NAME":"STARLINK-34252","OBJECT_ID":"2025-124P","EPOCH":"2025-08-15T14:00:03.000384","MEAN_MOTION":15.27532448,"ECCENTRICITY":0.0002455,"INCLINATION":42.9996,"RA_OF_ASC_NODE":205.8675,"ARG_OF_PERICENTER":272.1029,"MEAN_ANOMALY":213.7467,"EPHEMERIS_TYPE":0,"CLASSIFICATION_TYPE":"U","NORAD_CAT_ID":64330,"ELEMENT_SET_NO":999,"REV_AT_EPOCH":590,"BSTAR":0.00015569,"MEAN_MOTION_DOT":4.018e-5,"MEAN_MOTION_DDOT":0},{"OBJECT_NAME":"STARLINK-34050","OBJECT_ID":"2025-124Q","EPOCH":"2025-08-15T00:46:41.412864","MEAN_MOTION":15.2843885,"ECCENTRICITY":0.0001056,"INCLINATION":42.9998,"RA_OF_ASC_NODE":208.9092,"ARG_OF_PERICENTER":245.0408,"MEAN_ANOMALY":115.0334,"EPHEMERIS_TYPE":0,"CLASSIFICATION_TYPE":"U","NORAD_CAT_ID":64331,"ELEMENT_SET_NO":999,"REV_AT_EPOCH":1123,"BSTAR":0.00075717,"MEAN_MOTION_DOT":0.00021187,"MEAN_MOTION_DDOT":0},{"OBJECT_NAME":"STARLINK-33782","OBJECT_ID":"2025-124R","EPOCH":"2025-08-15T14:00:03.000384","MEAN_MOTION":15.27606209,"ECCENTRICITY":0.0002046,"INCLINATION":43.0011,"RA_OF_ASC_NODE":205.5723,"ARG_OF_PERICENTER":261.8497,"MEAN_ANOMALY":344.2443,"EPHEMERIS_TYPE":0,"CLASSIFICATION_TYPE":"U","NORAD_CAT_ID":64332,"ELEMENT_SET_NO":999,"REV_AT_EPOCH":595,"BSTAR":-0.00071975,"MEAN_MOTION_DOT":-0.00020032,"MEAN_MOTION_DDOT":0},{"OBJECT_NAME":"STARLINK-34207","OBJECT_ID":"2025-124S","EPOCH":"2025-08-14T23:14:11.378400","MEAN_MOTION":15.27608906,"ECCENTRICITY":0.0001243,"INCLINATION":42.9968,"RA_OF_ASC_NODE":209.2883,"ARG_OF_PERICENTER":272.797,"MEAN_ANOMALY":87.274,"EPHEMERIS_TYPE":0,"CLASSIFICATION_TYPE":"U","NORAD_CAT_ID":64333,"ELEMENT_SET_NO":999,"REV_AT_EPOCH":1016,"BSTAR":0.00060281,"MEAN_MOTION_DOT":0.00016377,"MEAN_MOTION_DDOT":0},{"OBJECT_NAME":"STARLINK-34260","OBJECT_ID":"2025-124T","EPOCH":"2025-08-14T15:34:29.257536","MEAN_MOTION":15.27574791,"ECCENTRICITY":0.0001266,"INCLINATION":42.9981,"RA_OF_ASC_NODE":211.1884,"ARG_OF_PERICENTER":265.6915,"MEAN_ANOMALY":94.3792,"EPHEMERIS_TYPE":0,"CLASSIFICATION_TYPE":"U","NORAD_CAT_ID":64334,"ELEMENT_SET_NO":999,"REV_AT_EPOCH":1011,"BSTAR":2.2975e-5,"MEAN_MOTION_DOT":3.7e-6,"MEAN_MOTION_DDOT":0},{"OBJECT_NAME":"STARLINK-33855","OBJECT_ID":"2025-124U","EPOCH":"2025-08-15T00:16:53.175648","MEAN_MOTION":15.27597235,"ECCENTRICITY":0.0001045,"INCLINATION":42.998,"RA_OF_ASC_NODE":208.7439,"ARG_OF_PERICENTER":208.4344,"MEAN_ANOMALY":151.645,"EPHEMERIS_TYPE":0,"CLASSIFICATION_TYPE":"U","NORAD_CAT_ID":64335,"ELEMENT_SET_NO":999,"REV_AT_EPOCH":1017,"BSTAR":0.00085532,"MEAN_MOTION_DOT":0.00023361,"MEAN_MOTION_DDOT":0},{"OBJECT_NAME":"STARLINK-34223","OBJECT_ID":"2025-124V","EPOCH":"2025-08-15T08:38:16.860768","MEAN_MOTION":15.40724818,"ECCENTRICITY":0.0001648,"INCLINATION":43.0009,"RA_OF_ASC_NODE":206.1985,"ARG_OF_PERICENTER":267.8157,"MEAN_ANOMALY":92.2511,"EPHEMERIS_TYPE":0,"CLASSIFICATION_TYPE":"U","NORAD_CAT_ID":64336,"ELEMENT_SET_NO":999,"REV_AT_EPOCH":1023,"BSTAR":0.00107,"MEAN_MOTION_DOT":0.00044692,"MEAN_MOTION_DDOT":0},{"OBJECT_NAME":"STARLINK-34216","OBJECT_ID":"2025-124W","EPOCH":"2025-08-15T14:00:03.000384","MEAN_MOTION":15.28413786,"ECCENTRICITY":9.78e-5,"INCLINATION":43.0003,"RA_OF_ASC_NODE":205.3413,"ARG_OF_PERICENTER":266.1674,"MEAN_ANOMALY":76.3779,"EPHEMERIS_TYPE":0,"CLASSIFICATION_TYPE":"U","NORAD_CAT_ID":64337,"ELEMENT_SET_NO":999,"REV_AT_EPOCH":591,"BSTAR":-0.00057687,"MEAN_MOTION_DOT":-0.00016512,"MEAN_MOTION_DDOT":0},{"OBJECT_NAME":"STARLINK-34218","OBJECT_ID":"2025-124X","EPOCH":"2025-08-15T07:40:24.697056","MEAN_MOTION":15.40724632,"ECCENTRICITY":0.0001776,"INCLINATION":43.0008,"RA_OF_ASC_NODE":206.7604,"ARG_OF_PERICENTER":266.996,"MEAN_ANOMALY":93.0693,"EPHEMERIS_TYPE":0,"CLASSIFICATION_TYPE":"U","NORAD_CAT_ID":64338,"ELEMENT_SET_NO":999,"REV_AT_EPOCH":1022,"BSTAR":0.0011424,"MEAN_MOTION_DOT":0.00047756,"MEAN_MOTION_DDOT":0},{"OBJECT_NAME":"STARLINK-34017","OBJECT_ID":"2025-124Y","EPOCH":"2025-08-15T14:00:03.000384","MEAN_MOTION":15.27594085,"ECCENTRICITY":0.000157,"INCLINATION":43.0003,"RA_OF_ASC_NODE":205.671,"ARG_OF_PERICENTER":261.1774,"MEAN_ANOMALY":302.5113,"EPHEMERIS_TYPE":0,"CLASSIFICATION_TYPE":"U","NORAD_CAT_ID":64339,"ELEMENT_SET_NO":999,"REV_AT_EPOCH":590,"BSTAR":-0.00060882,"MEAN_MOTION_DOT":-0.00016985,"MEAN_MOTION_DDOT":0},{"OBJECT_NAME":"STARLINK-33977","OBJECT_ID":"2025-126A","EPOCH":"2025-08-15T14:32:02.647680","MEAN_MOTION":14.99146681,"ECCENTRICITY":0.0003058,"INCLINATION":70.0016,"RA_OF_ASC_NODE":194.0242,"ARG_OF_PERICENTER":274.9388,"MEAN_ANOMALY":85.1422,"EPHEMERIS_TYPE":0,"CLASSIFICATION_TYPE":"U","NORAD_CAT_ID":64344,"ELEMENT_SET_NO":999,"REV_AT_EPOCH":1102,"BSTAR":0.0001031,"MEAN_MOTION_DOT":1.163e-5,"MEAN_MOTION_DDOT":0},{"OBJECT_NAME":"STARLINK-34426","OBJECT_ID":"2025-126B","EPOCH":"2025-08-15T14:00:03.000384","MEAN_MOTION":14.99093521,"ECCENTRICITY":0.0002479,"INCLINATION":70.002,"RA_OF_ASC_NODE":194.0277,"ARG_OF_PERICENTER":272.381,"MEAN_ANOMALY":8.0866,"EPHEMERIS_TYPE":0,"CLASSIFICATION_TYPE":"U","NORAD_CAT_ID":64345,"ELEMENT_SET_NO":999,"REV_AT_EPOCH":591,"BSTAR":-0.0037262,"MEAN_MOTION_DOT":-0.00045151,"MEAN_MOTION_DDOT":0}]
